STARLINK-30494          
1 57970U 23151G   26068.36049035 -.00001272  00000+0 -35691-4 0  9993
2 57970  43.0027 192.4566 0001155 241.5536 118.5200 15.28417441137406
STARLINK-32299          
1 61702U 24195R   26068.55667478 -.00000249  00000+0  37123-5 0  9993
2 61702  53.1605 155.7910 0001160 111.9829 248.1295 15.30187677 77230
